{"type":"FeatureCollection","features":[{"type":"Feature","properties":{"name":"Rota","anchors":[{"name":"Baslangic","latitude":36.75641,"longitude":28.04356},{"name":"Bozburun guneyi","latitude":36.6,"longitude":27.95}],"boat":{"draft":1.5,"underKeel":1,"modelAllowance":5,"waterLevelDrop":0,"horizontalBuffer":150},"minimumModelDepth":7.5,"foreignCellCount":326448,"boundaryChecked":true,"boundaryWays":9,"cellMeters":60,"gridRows":1298,"gridColumns":892,"west":27.7,"south":36.35,"east":28.30014360515638,"north":37.05039166668951,"pathCells":305,"waypoints":9,"gridDistanceNm":11.52624282818479,"routeDistanceNm":11.139480507306372,"durationHoursAtSpeed":2.2278961014612744,"speedKnots":5,"shallowestModelDepthOnRoute":11.7421875,"calculatedAt":1788952314286,"sourceLabel":"EMODnet DTM · GEBCO dolgusu dahil","bathymetryDownloadedAt":1788952292381,"bathymetryFromCache":false,"osmDownloadedAt":1788952296267,"osmFromCache":false,"osmTimestamp":"2026-09-09T11:10:04Z","bathymetryURL":"https://ows.emodnet-bathymetry.eu/wcs?bbox=27.689999999999998%2C36.34%2C28.31014360515638%2C37.060391666689505&compression=NONE&coverage=emodnet%3Amean&crs=EPSG%3A4326&format=GeoTIFF&interpolation=nearest&request=GetCoverage&resx=0.0010416666666666667&resy=0.0010416666666666667&service=WCS&version=1.0.0","osmQuery":"[out:json][timeout:90];(\nway[\"natural\"=\"coastline\"](36.25,27.5,37.25,28.5);\nnwr[\"seamark:type\"~\"^(rock|wreck|obstruction|restricted_area|military_area|marine_farm)$\"](36.25,27.5,37.25,28.5);\nnwr[\"man_made\"~\"^(pier|breakwater|groyne)$\"](36.25,27.5,37.25,28.5);\nnwr[\"natural\"=\"reef\"](36.25,27.5,37.25,28.5);\nway[\"boundary\"=\"administrative\"][\"admin_level\"=\"2\"][\"maritime\"=\"yes\"](36.25,27.5,37.25,28.5);\n);out body geom;","bathymetrySHA256":"7a8d9b2fe1ccfd8a8e0a8710e2d38a48a8eba6e8014b00b5e7f6d900908bd3d5","osmSHA256":"af4786169a4d5ed5cbcf931a75645bc954380cad6d91e36aaca758dfead198e8","sourceLatitudeStep":0.0010410284200715368,"margin":0.25,"widenedSearchArea":false,"attempts":[],"coastWays":518,"coastSegments":47114,"enforceOwnWaters":false,"obstacleCount":423,"unknownCellCount":0,"shallowCellCount":70867,"totalCellCount":1157816,"elapsedMs":24197,"validation":"JS engine: numeric GeoTIFF decode + coast/obstacle mask + A*, every returned cell and its full horizontal buffer re-checked independently."},"geometry":{"type":"LineString","coordinates":[[28.04356,36.75641],[28.043467836807547,36.756583298035856],[28.036739769485166,36.75010818247325],[27.994352945354166,36.72366812725923],[27.960039802010023,36.68913417759195],[27.95802138181331,36.68535702684709],[27.95734857508107,36.67996109721158],[27.949947701026453,36.600101338606],[27.95,36.6]]}},{"type":"Feature","properties":{"name":"Baslangic"},"geometry":{"type":"Point","coordinates":[28.04356,36.75641]}},{"type":"Feature","properties":{"name":"Bozburun guneyi"},"geometry":{"type":"Point","coordinates":[27.95,36.6]}}]}