{"type": "Feature", "properties": {"status": 0, "grid_rows": 519, "grid_columns": 386, "cell_m": 150.0, "coast_ways": 304, "coast_segments": 34399, "obstacle_shapes": 381, "mask_counts": {"1": 119779, "8": 8745, "4": 6105, "2": 65705}, "raster_rows": 691, "raster_columns": 644, "raster_step": 0.0010421445299677622, "source": "EMODnet mean DTM including GEBCO infill; cell-level lineage not resolved", "osm_timestamp": "2026-09-08T14:20:21Z", "raster_sha256": "2f87f323d9bd256171cd781b3210028934cf332e029854d5c7ae4601a2fccf63", "osm_sha256": "340ad28b50dd1e39888fdb21f16c0f188bfa6b071aa0927d1c656e941242e18b", "raster_url": "https://ows.emodnet-bathymetry.eu/wcs?bbox=27.24%2C36.49%2C27.91075713031187%2C37.21012187020773&compression=NONE&coverage=emodnet%3Amean&crs=EPSG%3A4326&format=GeoTIFF&interpolation=nearest&request=GetCoverage&resx=0.0010416666666666667&resy=0.0010416666666666667&service=WCS&version=1.0.0", "osm_query": "[out:json][timeout:90];(\nway[\"natural\"=\"coastline\"](36.49,27.24,37.21012187020773,27.91075713031187);\nnwr[\"seamark:type\"~\"^(rock|wreck|obstruction|restricted_area|military_area|marine_farm)$\"](36.49,27.24,37.21012187020773,27.91075713031187);\nnwr[\"man_made\"~\"^(pier|breakwater|groyne)$\"](36.49,27.24,37.21012187020773,27.91075713031187);\nnwr[\"natural\"=\"reef\"](36.49,27.24,37.21012187020773,27.91075713031187););out body geom;", "path_cells": 478, "grid_distance_nm": 41.58618737760527, "grid_duration_at_5kn_hours": 8.317237475521054, "minimum_model_depth": 8.41796875, "start": [36.7, 27.7], "goal": [37.01, 27.435], "validation": "C numeric decoder + C coast/obstacle mask + C A*: every path edge and buffer checked. Swift/iOS not built."}, "geometry": {"type": "LineString", "coordinates": [[27.699292163803403, 36.7003238877184], [27.699292163803403, 36.69897490530952], [27.697606264502074, 36.69762592290064], [27.69592036520075, 36.696276940491764], [27.694234465899424, 36.694927958082886], [27.694234465899424, 36.69357897567401], [27.694234465899424, 36.69222999326513], [27.694234465899424, 36.69088101085625], [27.694234465899424, 36.689532028447374], [27.694234465899424, 36.688183046038496], [27.694234465899424, 36.68683406362962], [27.694234465899424, 36.68548508122074], [27.694234465899424, 36.68413609881186], [27.694234465899424, 36.682787116402984], [27.694234465899424, 36.68143813399411], [27.694234465899424, 36.68008915158523], [27.694234465899424, 36.67874016917635], [27.694234465899424, 36.67739118676747], [27.694234465899424, 36.676042204358595], [27.694234465899424, 36.67469322194972], [27.694234465899424, 36.67334423954084], [27.694234465899424, 36.671995257131954], [27.694234465899424, 36.670646274723076], [27.694234465899424, 36.6692972923142], [27.694234465899424, 36.66794830990532], [27.694234465899424, 36.66659932749644], [27.694234465899424, 36.665250345087564], [27.694234465899424, 36.663901362678686], [27.694234465899424, 36.66255238026981], [27.694234465899424, 36.66120339786093], [27.694234465899424, 36.65985441545205], [27.6925485665981, 36.658505433043175], [27.69086266729677, 36.6571564506343], [27.689176767995445, 36.65580746822542], [27.68749086869412, 36.65445848581654], [27.68580496939279, 36.65310950340766], [27.684119070091466, 36.65310950340766], [27.68243317079014, 36.651760520998785], [27.680747271488816, 36.651760520998785], [27.679061372187487, 36.651760520998785], [27.677375472886162, 36.651760520998785], [27.675689573584837, 36.651760520998785], [27.67400367428351, 36.651760520998785], [27.672317774982183, 36.651760520998785], [27.670631875680858, 36.651760520998785], [27.668945976379533, 36.651760520998785], [27.667260077078204, 36.651760520998785], [27.66557417777688, 36.651760520998785], [27.663888278475554, 36.651760520998785], [27.66220237917423, 36.651760520998785], [27.6605164798729, 36.651760520998785], [27.658830580571575, 36.651760520998785], [27.65714468127025, 36.651760520998785], [27.655458781968925, 36.651760520998785], [27.653772882667596, 36.651760520998785], [27.65208698336627, 36.651760520998785], [27.650401084064946, 36.651760520998785], [27.648715184763617, 36.651760520998785], [27.647029285462292, 36.651760520998785], [27.645343386160967, 36.65041153858991], [27.64365748685964, 36.65041153858991], [27.641971587558313, 36.65041153858991], [27.640285688256988, 36.65041153858991], [27.638599788955663, 36.65041153858991], [27.636913889654338, 36.65041153858991], [27.63522799035301, 36.65041153858991], [27.633542091051684, 36.65041153858991], [27.63185619175036, 36.65041153858991], [27.63017029244903, 36.65041153858991], [27.628484393147705, 36.65041153858991], [27.62679849384638, 36.65041153858991], [27.625112594545055, 36.65041153858991], [27.623426695243726, 36.65041153858991], [27.6217407959424, 36.65041153858991], [27.620054896641076, 36.65041153858991], [27.61836899733975, 36.65041153858991], [27.616683098038422, 36.65041153858991], [27.614997198737097, 36.65041153858991], [27.61331129943577, 36.65041153858991], [27.611625400134447, 36.65041153858991], [27.609939500833118, 36.65041153858991], [27.608253601531793, 36.65041153858991], [27.606567702230468, 36.65041153858991], [27.60488180292914, 36.65041153858991], [27.603195903627814, 36.65041153858991], [27.60151000432649, 36.65041153858991], [27.599824105025164, 36.65041153858991], [27.598138205723835, 36.65041153858991], [27.59645230642251, 36.65041153858991], [27.594766407121185, 36.65041153858991], [27.59308050781986, 36.65041153858991], [27.59139460851853, 36.65041153858991], [27.589708709217206, 36.65041153858991], [27.58802280991588, 36.65041153858991], [27.586336910614552, 36.65041153858991], [27.584651011313227, 36.65041153858991], [27.5829651120119, 36.65041153858991], [27.581279212710577, 36.65041153858991], [27.579593313409248, 36.65041153858991], [27.577907414107923, 36.65041153858991], [27.576221514806598, 36.65041153858991], [27.574535615505273, 36.65041153858991], [27.572849716203944, 36.65041153858991], [27.57116381690262, 36.65041153858991], [27.569477917601294, 36.65041153858991], [27.56779201829997, 36.65041153858991], [27.56610611899864, 36.65041153858991], [27.564420219697315, 36.65041153858991], [27.56273432039599, 36.65041153858991], [27.56104842109466, 36.65041153858991], [27.559362521793336, 36.65041153858991], [27.55767662249201, 36.65041153858991], [27.555990723190686, 36.65041153858991], [27.554304823889357, 36.65041153858991], [27.55261892458803, 36.65041153858991], [27.550933025286707, 36.65041153858991], [27.54924712598538, 36.65041153858991], [27.547561226684053, 36.64906255618103], [27.545875327382728, 36.64771357377215], [27.544189428081403, 36.64636459136327], [27.542503528780074, 36.645015608954395], [27.54081762947875, 36.64366662654552], [27.539131730177424, 36.64366662654552], [27.5374458308761, 36.64366662654552], [27.53575993157477, 36.64366662654552], [27.534074032273445, 36.64366662654552], [27.53238813297212, 36.64366662654552], [27.530702233670794, 36.64366662654552], [27.529016334369466, 36.64366662654552], [27.52733043506814, 36.64366662654552], [27.525644535766816, 36.64366662654552], [27.523958636465487, 36.64366662654552], [27.522272737164162, 36.64366662654552], [27.520586837862837, 36.64366662654552], [27.51890093856151, 36.64366662654552], [27.517215039260183, 36.64366662654552], [27.515529139958858, 36.64366662654552], [27.513843240657533, 36.64366662654552], [27.512157341356207, 36.64366662654552], [27.51047144205488, 36.64366662654552], [27.508785542753554, 36.64366662654552], [27.50709964345223, 36.64366662654552], [27.5054137441509, 36.64366662654552], [27.503727844849575, 36.64366662654552], [27.50204194554825, 36.64366662654552], [27.500356046246925, 36.64366662654552], [27.498670146945596, 36.64366662654552], [27.49698424764427, 36.64366662654552], [27.495298348342946, 36.64366662654552], [27.49361244904162, 36.64366662654552], [27.491926549740292, 36.64366662654552], [27.490240650438967, 36.64366662654552], [27.48855475113764, 36.64366662654552], [27.486868851836316, 36.64366662654552], [27.485182952534988, 36.64231764413664], [27.483497053233663, 36.64231764413664], [27.481811153932338, 36.64231764413664], [27.48012525463101, 36.64231764413664], [27.478439355329684, 36.64231764413664], [27.47675345602836, 36.64231764413664], [27.475067556727033, 36.64231764413664], [27.473381657425705, 36.64231764413664], [27.47169575812438, 36.64366662654552], [27.470009858823055, 36.645015608954395], [27.46832395952173, 36.64636459136327], [27.4666380602204, 36.64636459136327], [27.464952160919076, 36.64636459136327], [27.46326626161775, 36.64771357377215], [27.461580362316422, 36.64906255618103], [27.459894463015097, 36.65041153858991], [27.45820856371377, 36.651760520998785], [27.456522664412446, 36.65310950340766], [27.454836765111118, 36.65445848581654], [27.453150865809793, 36.65445848581654], [27.451464966508468, 36.65445848581654], [27.449779067207142, 36.65445848581654], [27.448093167905814, 36.65445848581654], [27.44640726860449, 36.65580746822542], [27.444721369303164, 36.65580746822542], [27.443035470001835, 36.65580746822542], [27.44134957070051, 36.65580746822542], [27.439663671399185, 36.6571564506343], [27.43797777209786, 36.6571564506343], [27.43629187279653, 36.6571564506343], [27.434605973495206, 36.6571564506343], [27.43292007419388, 36.6571564506343], [27.431234174892555, 36.6571564506343], [27.429548275591227, 36.6571564506343], [27.4278623762899, 36.6571564506343], [27.426176476988577, 36.6571564506343], [27.42449057768725, 36.6571564506343], [27.422804678385923, 36.6571564506343], [27.421118779084598, 36.6571564506343], [27.419432879783272, 36.6571564506343], [27.417746980481944, 36.6571564506343], [27.41606108118062, 36.6571564506343], [27.414375181879294, 36.6571564506343], [27.41268928257797, 36.6571564506343], [27.41100338327664, 36.6571564506343], [27.409317483975315, 36.6571564506343], [27.40763158467399, 36.6571564506343], [27.405945685372664, 36.6571564506343], [27.404259786071336, 36.6571564506343], [27.40257388677001, 36.6571564506343], [27.400887987468685, 36.658505433043175], [27.399202088167357, 36.65985441545205], [27.39751618886603, 36.66120339786093], [27.395830289564707, 36.66255238026981], [27.39414439026338, 36.663901362678686], [27.392458490962053, 36.665250345087564], [27.390772591660728, 36.66659932749644], [27.389086692359403, 36.66794830990532], [27.387400793058077, 36.6692972923142], [27.38571489375675, 36.670646274723076], [27.384028994455424, 36.671995257131954], [27.3823430951541, 36.67334423954084], [27.38065719585277, 36.67469322194972], [27.378971296551445, 36.67469322194972], [27.37728539725012, 36.67469322194972], [27.375599497948794, 36.67469322194972], [27.373913598647466, 36.67469322194972], [27.37222769934614, 36.67469322194972], [27.370541800044816, 36.67469322194972], [27.36885590074349, 36.676042204358595], [27.36717000144216, 36.676042204358595], [27.365484102140837, 36.67739118676747], [27.36379820283951, 36.67739118676747], [27.362112303538183, 36.67739118676747], [27.360426404236858, 36.67874016917635], [27.358740504935533, 36.67874016917635], [27.358740504935533, 36.68008915158523], [27.357054605634207, 36.68143813399411], [27.357054605634207, 36.682787116402984], [27.357054605634207, 36.68413609881186], [27.357054605634207, 36.68548508122074], [27.357054605634207, 36.68683406362962], [27.357054605634207, 36.688183046038496], [27.357054605634207, 36.689532028447374], [27.357054605634207, 36.69088101085625], [27.357054605634207, 36.69222999326513], [27.357054605634207, 36.69357897567401], [27.357054605634207, 36.694927958082886], [27.357054605634207, 36.696276940491764], [27.357054605634207, 36.69762592290064], [27.357054605634207, 36.69897490530952], [27.357054605634207, 36.7003238877184], [27.357054605634207, 36.701672870127275], [27.357054605634207, 36.70302185253615], [27.357054605634207, 36.70437083494503], [27.357054605634207, 36.70571981735391], [27.357054605634207, 36.70706879976279], [27.357054605634207, 36.708417782171665], [27.357054605634207, 36.70976676458054], [27.357054605634207, 36.71111574698942], [27.357054605634207, 36.7124647293983], [27.357054605634207, 36.71381371180718], [27.357054605634207, 36.715162694216055], [27.357054605634207, 36.71651167662493], [27.357054605634207, 36.71786065903381], [27.357054605634207, 36.71920964144269], [27.357054605634207, 36.720558623851566], [27.357054605634207, 36.721907606260444], [27.357054605634207, 36.72325658866932], [27.357054605634207, 36.7246055710782], [27.357054605634207, 36.72595455348708], [27.357054605634207, 36.727303535895956], [27.357054605634207, 36.728652518304834], [27.357054605634207, 36.73000150071371], [27.357054605634207, 36.7313504831226], [27.357054605634207, 36.732699465531475], [27.357054605634207, 36.73404844794035], [27.357054605634207, 36.73539743034923], [27.357054605634207, 36.73674641275811], [27.357054605634207, 36.73809539516699], [27.357054605634207, 36.739444377575865], [27.357054605634207, 36.74079335998474], [27.357054605634207, 36.74214234239362], [27.357054605634207, 36.7434913248025], [27.357054605634207, 36.744840307211376], [27.357054605634207, 36.746189289620254], [27.357054605634207, 36.74753827202913], [27.357054605634207, 36.74888725443801], [27.357054605634207, 36.75023623684689], [27.357054605634207, 36.751585219255766], [27.357054605634207, 36.752934201664644], [27.357054605634207, 36.75428318407352], [27.357054605634207, 36.7556321664824], [27.357054605634207, 36.75698114889128], [27.357054605634207, 36.758330131300156], [27.357054605634207, 36.75967911370903], [27.357054605634207, 36.76102809611791], [27.357054605634207, 36.76237707852679], [27.357054605634207, 36.76372606093567], [27.357054605634207, 36.765075043344545], [27.357054605634207, 36.76642402575342], [27.357054605634207, 36.7677730081623], [27.357054605634207, 36.76912199057118], [27.357054605634207, 36.77047097298006], [27.357054605634207, 36.771819955388935], [27.357054605634207, 36.77316893779781], [27.357054605634207, 36.77451792020669], [27.357054605634207, 36.77586690261557], [27.357054605634207, 36.77721588502445], [27.357054605634207, 36.778564867433325], [27.357054605634207, 36.7799138498422], [27.357054605634207, 36.78126283225108], [27.357054605634207, 36.78261181465996], [27.357054605634207, 36.783960797068836], [27.357054605634207, 36.785309779477714], [27.357054605634207, 36.78665876188659], [27.357054605634207, 36.78800774429547], [27.357054605634207, 36.789356726704355], [27.357054605634207, 36.79070570911323], [27.357054605634207, 36.79205469152211], [27.357054605634207, 36.79340367393099], [27.357054605634207, 36.79475265633987], [27.357054605634207, 36.796101638748745], [27.357054605634207, 36.79745062115762], [27.357054605634207, 36.7987996035665], [27.357054605634207, 36.80014858597538], [27.357054605634207, 36.80149756838426], [27.357054605634207, 36.802846550793134], [27.357054605634207, 36.80419553320201], [27.357054605634207, 36.80554451561089], [27.357054605634207, 36.80689349801977], [27.357054605634207, 36.808242480428646], [27.357054605634207, 36.809591462837524], [27.357054605634207, 36.8109404452464], [27.357054605634207, 36.81228942765528], [27.357054605634207, 36.81363841006416], [27.357054605634207, 36.814987392473036], [27.357054605634207, 36.816336374881914], [27.357054605634207, 36.81768535729079], [27.357054605634207, 36.81903433969967], [27.357054605634207, 36.82038332210855], [27.357054605634207, 36.821732304517425], [27.357054605634207, 36.8230812869263], [27.357054605634207, 36.82443026933518], [27.357054605634207, 36.82577925174406], [27.357054605634207, 36.82712823415294], [27.357054605634207, 36.828477216561815], [27.357054605634207, 36.82982619897069], [27.357054605634207, 36.83117518137957], [27.357054605634207, 36.83252416378845], [27.357054605634207, 36.83387314619733], [27.357054605634207, 36.835222128606205], [27.357054605634207, 36.83657111101508], [27.357054605634207, 36.83792009342396], [27.357054605634207, 36.83926907583284], [27.357054605634207, 36.840618058241716], [27.357054605634207, 36.841967040650594], [27.357054605634207, 36.84331602305947], [27.357054605634207, 36.84466500546835], [27.357054605634207, 36.84601398787723], [27.357054605634207, 36.84736297028611], [27.357054605634207, 36.84871195269499], [27.357054605634207, 36.85006093510387], [27.358740504935533, 36.85140991751275], [27.360426404236858, 36.852758899921625], [27.360426404236858, 36.8541078823305], [27.360426404236858, 36.85545686473938], [27.360426404236858, 36.85680584714826], [27.360426404236858, 36.85815482955714], [27.360426404236858, 36.859503811966015], [27.360426404236858, 36.86085279437489], [27.360426404236858, 36.86220177678377], [27.360426404236858, 36.86355075919265], [27.360426404236858, 36.864899741601526], [27.360426404236858, 36.866248724010404], [27.360426404236858, 36.86759770641928], [27.360426404236858, 36.86894668882816], [27.360426404236858, 36.87029567123704], [27.360426404236858, 36.871644653645916], [27.360426404236858, 36.872993636054794], [27.360426404236858, 36.87434261846367], [27.360426404236858, 36.87569160087255], [27.360426404236858, 36.87704058328143], [27.360426404236858, 36.878389565690306], [27.360426404236858, 36.87973854809918], [27.360426404236858, 36.88108753050806], [27.362112303538183, 36.88243651291694], [27.362112303538183, 36.88378549532582], [27.36379820283951, 36.885134477734695], [27.36379820283951, 36.88648346014357], [27.365484102140837, 36.88783244255245], [27.365484102140837, 36.88918142496133], [27.365484102140837, 36.89053040737021], [27.36717000144216, 36.891879389779085], [27.36717000144216, 36.89322837218796], [27.36885590074349, 36.89457735459684], [27.36885590074349, 36.89592633700572], [27.370541800044816, 36.8972753194146], [27.370541800044816, 36.898624301823475], [27.37222769934614, 36.89997328423235], [27.37222769934614, 36.90132226664123], [27.373913598647466, 36.90267124905011], [27.373913598647466, 36.904020231458986], [27.375599497948794, 36.90536921386787], [27.375599497948794, 36.90671819627675], [27.375599497948794, 36.90806717868563], [27.37728539725012, 36.909416161094505], [27.37728539725012, 36.91076514350338], [27.378971296551445, 36.91211412591226], [27.378971296551445, 36.91346310832114], [27.38065719585277, 36.91481209073002], [27.38065719585277, 36.916161073138895], [27.3823430951541, 36.91751005554777], [27.3823430951541, 36.91885903795665], [27.384028994455424, 36.92020802036553], [27.384028994455424, 36.921557002774406], [27.384028994455424, 36.922905985183284], [27.38571489375675, 36.92425496759216], [27.38571489375675, 36.92560395000104], [27.387400793058077, 36.92695293240992], [27.387400793058077, 36.928301914818796], [27.389086692359403, 36.929650897227674], [27.389086692359403, 36.93099987963655], [27.390772591660728, 36.93234886204543], [27.390772591660728, 36.93369784445431], [27.392458490962053, 36.935046826863186], [27.392458490962053, 36.936395809272064], [27.392458490962053, 36.93774479168094], [27.39414439026338, 36.93909377408982], [27.39414439026338, 36.9404427564987], [27.395830289564707, 36.941791738907575], [27.395830289564707, 36.94314072131645], [27.39751618886603, 36.94448970372533], [27.39751618886603, 36.94583868613421], [27.399202088167357, 36.94718766854309], [27.399202088167357, 36.948536650951965], [27.400887987468685, 36.94988563336084], [27.400887987468685, 36.95123461576972], [27.400887987468685, 36.9525835981786], [27.40257388677001, 36.95393258058748], [27.40257388677001, 36.955281562996355], [27.404259786071336, 36.95663054540523], [27.404259786071336, 36.95797952781411], [27.405945685372664, 36.95932851022299], [27.405945685372664, 36.960677492631866], [27.40763158467399, 36.962026475040744], [27.40763158467399, 36.96337545744963], [27.409317483975315, 36.96472443985851], [27.409317483975315, 36.966073422267385], [27.409317483975315, 36.96742240467626], [27.41100338327664, 36.96877138708514], [27.41100338327664, 36.97012036949402], [27.41268928257797, 36.9714693519029], [27.41268928257797, 36.972818334311775], [27.414375181879294, 36.97416731672065], [27.414375181879294, 36.97551629912953], [27.41606108118062, 36.97686528153841], [27.41606108118062, 36.97821426394729], [27.417746980481944, 36.979563246356165], [27.417746980481944, 36.98091222876504], [27.417746980481944, 36.98226121117392], [27.417746980481944, 36.9836101935828], [27.417746980481944, 36.984959175991676], [27.417746980481944, 36.986308158400554], [27.417746980481944, 36.98765714080943], [27.417746980481944, 36.98900612321831], [27.417746980481944, 36.99035510562719], [27.417746980481944, 36.991704088036066], [27.417746980481944, 36.993053070444944], [27.417746980481944, 36.99440205285382], [27.417746980481944, 36.9957510352627], [27.417746980481944, 36.99710001767158], [27.417746980481944, 36.998449000080456], [27.419432879783272, 36.99979798248933], [27.419432879783272, 37.00114696489821], [27.421118779084598, 37.00249594730709], [27.422804678385923, 37.00384492971597], [27.42449057768725, 37.005193912124845], [27.426176476988577, 37.00654289453372], [27.4278623762899, 37.0078918769426], [27.429548275591227, 37.00924085935148], [27.431234174892555, 37.00924085935148], [27.43292007419388, 37.01058984176036], [27.434605973495206, 37.01058984176036]]}}