{"type":"FeatureCollection","features":[{"type":"Feature","properties":{"name":"Rota","anchors":[{"name":"Bencik agzi","latitude":36.75647,"longitude":28.04228},{"name":"Palamutbuku","latitude":36.6661,"longitude":27.5105}],"boat":{"draft":1.5,"underKeel":1,"modelAllowance":5,"waterLevelDrop":0,"horizontalBuffer":150},"minimumModelDepth":7.5,"cellMeters":75,"gridRows":964,"gridColumns":1248,"west":27.25,"south":36.4,"east":28.300030196082634,"north":37.05020952107924,"pathCells":636,"waypoints":117,"gridDistanceNm":28.65094654759554,"routeDistanceNm":28.669811174844092,"durationHoursAtSpeed":5.733962234968818,"speedKnots":5,"shallowestModelDepthOnRoute":12.27734375,"calculatedAt":1788906527372,"sourceLabel":"EMODnet DTM · GEBCO dolgusu dahil","bathymetryDownloadedAt":1788906525336,"bathymetryFromCache":false,"osmDownloadedAt":1788906527057,"osmFromCache":false,"osmTimestamp":"2026-09-08T22:27:03Z","bathymetryURL":"https://ows.emodnet-bathymetry.eu/wcs?bbox=27.24%2C36.39%2C28.310030196082636%2C37.06020952107924&compression=NONE&coverage=emodnet%3Amean&crs=EPSG%3A4326&format=GeoTIFF&interpolation=nearest&request=GetCoverage&resx=0.0010416666666666667&resy=0.0010416666666666667&service=WCS&version=1.0.0","osmQuery":"[out:json][timeout:90];(\nway[\"natural\"=\"coastline\"](36.39,27.24,37.06020952107924,28.310030196082636);\nnwr[\"seamark:type\"~\"^(rock|wreck|obstruction|restricted_area|military_area|marine_farm)$\"](36.39,27.24,37.06020952107924,28.310030196082636);\nnwr[\"man_made\"~\"^(pier|breakwater|groyne)$\"](36.39,27.24,37.06020952107924,28.310030196082636);\nnwr[\"natural\"=\"reef\"](36.39,27.24,37.06020952107924,28.310030196082636);\n);out body geom;","bathymetrySHA256":"a7daeaa17d82c1d0e73a5cde02be8d786fb138a1d7baabf54cd07ded2bd9af77","osmSHA256":"781c407ed977cddf5118becf12442333feb64ead2721fa2ae0387c26b8ccaa90","sourceLatitudeStep":0.0010423165180081372,"margin":0.25,"widenedSearchArea":false,"attempts":[],"coastWays":558,"coastSegments":54571,"obstacleCount":509,"unknownCellCount":0,"shallowCellCount":63205,"totalCellCount":1203072,"elapsedMs":4969,"validation":"JS engine: numeric GeoTIFF decode + coast/obstacle mask + A*, every returned cell and its full horizontal buffer re-checked independently."},"geometry":{"type":"LineString","coordinates":[[28.04228,36.75647],[28.042150183983814,36.75646860154603],[28.042150183983814,36.75444512793272],[28.039626072935537,36.7524216543194],[28.037943332236686,36.7524216543194],[28.031212369441285,36.7524216543194],[28.03037099909186,36.7524216543194],[28.024481406645883,36.74770021588833],[28.01775044385048,36.74230428625282],[28.01101948105508,36.736908356617306],[28.00428851825968,36.73151242698179],[27.99755755546428,36.726116497346275],[27.990826592668878,36.720720567710764],[27.984095629873476,36.71532463807525],[27.977364667078074,36.70992870843974],[27.970633704282672,36.70453277880423],[27.964744111836694,36.69981134037315],[27.96390274148727,36.69981134037315],[27.95717177869187,36.69981134037315],[27.950440815896467,36.69981134037315],[27.943709853101065,36.69981134037315],[27.936978890305664,36.69981134037315],[27.930247927510262,36.69981134037315],[27.92351696471486,36.69981134037315],[27.916786001919462,36.69981134037315],[27.91005503912406,36.69981134037315],[27.90332407632866,36.69981134037315],[27.896593113533257,36.69981134037315],[27.889862150737855,36.69981134037315],[27.883131187942453,36.69981134037315],[27.87640022514705,36.69981134037315],[27.86966926235165,36.69981134037315],[27.862938299556248,36.69981134037315],[27.856207336760846,36.69981134037315],[27.849476373965445,36.69981134037315],[27.842745411170043,36.69981134037315],[27.83601444837464,36.69981134037315],[27.82928348557924,36.69981134037315],[27.82255252278384,36.69981134037315],[27.81582155998844,36.69981134037315],[27.809090597193038,36.69981134037315],[27.802359634397636,36.69981134037315],[27.795628671602234,36.69981134037315],[27.788897708806832,36.69981134037315],[27.78216674601143,36.69981134037315],[27.77543578321603,36.69981134037315],[27.768704820420627,36.69981134037315],[27.761973857625225,36.69981134037315],[27.755242894829824,36.69981134037315],[27.748511932034422,36.69981134037315],[27.74346370993787,36.69981134037315],[27.74178096923902,36.698462357964274],[27.73505000644362,36.69306642832876],[27.72831904364822,36.68767049869325],[27.72158808085282,36.68227456905774],[27.714857118057417,36.67687863942223],[27.708126155262015,36.671482709786716],[27.701395192466613,36.666086780151204],[27.69466422967121,36.66069085051569],[27.68793326687581,36.65529492088018],[27.68456778547811,36.652596956062425],[27.683726415128685,36.652596956062425],[27.682043674429835,36.65124797365355],[27.681202304080408,36.65124797365355],[27.674471341285006,36.65124797365355],[27.667740378489604,36.65124797365355],[27.661009415694203,36.65124797365355],[27.6542784528988,36.65124797365355],[27.6475474901034,36.65124797365355],[27.640816527308,36.65124797365355],[27.6340855645126,36.65124797365355],[27.627354601717197,36.65124797365355],[27.620623638921796,36.65124797365355],[27.613892676126394,36.65124797365355],[27.607161713330992,36.65124797365355],[27.60043075053559,36.65124797365355],[27.59369978774019,36.65124797365355],[27.586968824944787,36.65124797365355],[27.580237862149385,36.65124797365355],[27.573506899353983,36.65124797365355],[27.56677593655858,36.65124797365355],[27.56004497376318,36.65124797365355],[27.553314010967778,36.65124797365355],[27.550789899919504,36.65124797365355],[27.54994852957008,36.65192246485798],[27.549107159220654,36.65192246485798],[27.54826578887123,36.652596956062425],[27.54658304817238,36.652596956062425],[27.545741677822953,36.65327144726686],[27.54490030747353,36.65327144726686],[27.544058937124102,36.6539459384713],[27.54321756677468,36.6539459384713],[27.542376196425252,36.65462042967574],[27.54153482607583,36.65462042967574],[27.5406934557264,36.65529492088018],[27.539852085376978,36.65529492088018],[27.53901071502755,36.655969412084616],[27.5373279743287,36.655969412084616],[27.536486603979277,36.65664390328906],[27.53564523362985,36.65664390328906],[27.534803863280427,36.657318394493494],[27.533962492931,36.657318394493494],[27.533121122581576,36.65799288569794],[27.53227975223215,36.65799288569794],[27.531438381882726,36.65866737690237],[27.5305970115333,36.65866737690237],[27.529755641183876,36.659341868106814],[27.528072900485025,36.659341868106814],[27.527231530135598,36.66001635931125],[27.526390159786175,36.66001635931125],[27.525548789436748,36.66069085051569],[27.524707419087324,36.66069085051569],[27.519659196990773,36.664737797742326],[27.517976456291922,36.666086780151204],[27.51292823419537,36.666086780151204],[27.510404123147094,36.666086780151204],[27.5105,36.6661]]}},{"type":"Feature","properties":{"name":"Bencik agzi"},"geometry":{"type":"Point","coordinates":[28.04228,36.75647]}},{"type":"Feature","properties":{"name":"Palamutbuku"},"geometry":{"type":"Point","coordinates":[27.5105,36.6661]}}]}